     2              NAVIGATION DATA                         RINEX VERSION / TYPE
CCRINEXN V1.6.0 UX  CDDIS               30-SEP-16 17:31     PGM / RUN BY / DATE 
IGS BROADCAST EPHEMERIS FILE                                COMMENT             
    0.1024D-07  0.7451D-08 -0.5960D-07 -0.5960D-07          ION ALPHA           
    0.8806D+05  0.0000D+00 -0.1966D+06 -0.6554D+05          ION BETA            
    0.931322574615D-09 0.888178419700D-14   503808     1916 DELTA-UTC: A0,A1,T,W
    17                                                      LEAP SECONDS        
                                                            END OF HEADER       
32 16  9 29 20  0  0.0-0.134420115501D-03-0.150066625793D-10 0.000000000000D+00
    0.210000000000D+02 0.747187500000D+02 0.483234430249D-08 0.630234149382D+00
    0.390224158764D-05 0.634885975160D-03 0.696629285812D-05 0.515364934158D+04
    0.417600000000D+06 0.651925802231D-07-0.233405806293D+01-0.316649675369D-07
    0.959123074892D+00 0.244156250000D+03-0.235054640048D+01-0.832356139568D-08
    0.381801618099D-09 0.100000000000D+01 0.191600000000D+04 0.000000000000D+00
    0.200000000000D+01 0.000000000000D+00 0.931322574616D-09 0.210000000000D+02
    0.410400000000D+06 0.000000000000D+00 0.000000000000D+00 0.000000000000D+00
12 16  9 29 21 59 44.0 0.388987362385D-03 0.227373675443D-12 0.000000000000D+00
    0.210000000000D+02-0.231250000000D+01 0.344264339992D-08-0.215371783735D+01
   -0.521540641785D-07 0.603760057129D-02 0.126082450151D-04 0.515365662956D+04
    0.424784000000D+06-0.130385160446D-07-0.178437996133D+00-0.838190317154D-07
    0.990439945079D+00 0.152843750000D+03 0.786876578168D+00-0.734602027694D-08
   -0.896465912832D-10 0.100000000000D+01 0.191600000000D+04 0.000000000000D+00
    0.200000000000D+01 0.000000000000D+00-0.125728547573D-07 0.210000000000D+02
    0.423936000000D+06 0.400000000000D+01 0.000000000000D+00 0.000000000000D+00
13 16  9 29 21 59 44.0-0.465819612145D-04-0.216004991671D-11 0.000000000000D+00
    0.210000000000D+02 0.718437500000D+02 0.471162482952D-08-0.562866417806D+00
    0.385008752346D-05 0.400485657155D-02 0.547990202904D-05 0.515368593597D+04
    0.424784000000D+06 0.298023223877D-07-0.221349216975D+01-0.223517417908D-07
    0.970731170393D+00 0.277187500000D+03 0.194405860344D+01-0.834606193269D-08
    0.362515100209D-09 0.100000000000D+01 0.191600000000D+04 0.000000000000D+00
    0.200000000000D+01 0.000000000000D+00-0.111758708954D-07 0.210000000000D+02
    0.424710000000D+06 0.400000000000D+01 0.000000000000D+00 0.000000000000D+00
14 16  9 29 21 59 44.0-0.375946983695D-04-0.193267624127D-11 0.000000000000D+00
    0.140000000000D+02 0.705937500000D+02 0.486127404997D-08 0.782772183021D+00
    0.372901558876D-05 0.875667051878D-02 0.637210905552D-05 0.515358687401D+04
    0.424784000000D+06-0.726431608200D-07-0.225135248379D+01 0.502914190292D-07
    0.963265119699D+00 0.260218750000D+03-0.194275749581D+01-0.847106740309D-08
    0.357157747821D-09 0.100000000000D+01 0.191600000000D+04 0.000000000000D+00
    0.200000000000D+01 0.000000000000D+00-0.931322574616D-08 0.140000000000D+02
    0.417600000000D+06 0.000000000000D+00 0.000000000000D+00 0.000000000000D+00
18 16  9 29 21 59 44.0 0.562437344342D-03 0.352429196937D-11 0.000000000000D+00
    0.200000000000D+01-0.344687500000D+02 0.496342103212D-08 0.279718955207D+01
   -0.182911753654D-05 0.172510914272D-01 0.125933438540D-04 0.515372949982D+04
    0.424784000000D+06 0.152736902237D-06 0.287179070403D+01-0.206753611565D-06
    0.925621522343D+00 0.113218750000D+03-0.185781473017D+01-0.791390107432D-08
   -0.172864343351D-09 0.100000000000D+01 0.191600000000D+04 0.000000000000D+00
    0.200000000000D+01 0.000000000000D+00-0.111758708954D-07 0.200000000000D+01
    0.423030000000D+06 0.400000000000D+01 0.000000000000D+00 0.000000000000D+00
20 16  9 29 21 59 44.0 0.438253860921D-03 0.204636307899D-11 0.000000000000D+00
    0.200000000000D+01-0.354687500000D+02 0.518521598506D-08 0.363417449475D+00
   -0.176765024662D-05 0.467668287456D-02 0.119172036648D-04 0.515359474564D+04
    0.424784000000D+06-0.353902578354D-07 0.282018242277D+01 0.931322574616D-08
    0.926892880078D+00 0.133406250000D+03 0.144655957423D+01-0.836927718542D-08
   -0.179650340301D-09 0.100000000000D+01 0.191600000000D+04 0.000000000000D+00
    0.200000000000D+01 0.000000000000D+00-0.838190317154D-08 0.200000000000D+01
    0.418200000000D+06 0.400000000000D+01 0.000000000000D+00 0.000000000000D+00
21 16  9 29 21 59 44.0-0.532420817763D-03-0.341060513165D-12 0.000000000000D+00
    0.110000000000D+02-0.657187500000D+02 0.527914846915D-08-0.251032408654D+01
   -0.347010791302D-05 0.233283424750D-01 0.308454036713D-05 0.515381721687D+04
    0.424784000000D+06 0.296160578728D-06 0.183021347880D+01 0.132247805595D-06
    0.937099393265D+00 0.297750000000D+03-0.175453641496D+01-0.831784647169D-08
   -0.717887045734D-10 0.100000000000D+01 0.191600000000D+04 0.000000000000D+00
    0.200000000000D+01 0.000000000000D+00-0.977888703346D-08 0.110000000000D+02
    0.417600000000D+06 0.400000000000D+01 0.000000000000D+00 0.000000000000D+00
30 16  9 29 21 59 44.0 0.152319669724D-03 0.147792889038D-11 0.000000000000D+00
    0.300000000000D+01-0.625000000000D+02 0.503378110576D-08-0.152743006602D+01
   -0.330433249474D-05 0.240793102421D-02 0.444240868092D-05 0.515376303101D+04
    0.424784000000D+06-0.186264514923D-07-0.121479311877D+01-0.484287738800D-07
    0.950426233182D+00 0.288437500000D+03-0.312887759870D+01-0.846070956537D-08
   -0.415017287136D-09 0.100000000000D+01 0.191600000000D+04 0.000000000000D+00
    0.200000000000D+01 0.000000000000D+00 0.372529029846D-08 0.300000000000D+01
    0.424140000000D+06 0.400000000000D+01 0.000000000000D+00 0.000000000000D+00
 1 16  9 29 22  0  0.0 0.356249511242D-04 0.125055521494D-11 0.000000000000D+00
    0.790000000000D+02-0.562187500000D+02 0.485520201821D-08-0.887228548127D+00
   -0.282749533653D-05 0.592436420266D-02 0.375509262085D-05 0.515369794846D+04
    0.424800000000D+06 0.162050127983D-06 0.186738165996D+01 0.372529029846D-07
    0.965025043795D+00 0.307843750000D+03 0.556479378914D+00-0.843749425883D-08
   -0.222866419763D-09 0.100000000000D+01 0.191600000000D+04 0.000000000000D+00
    0.200000000000D+01 0.000000000000D+00 0.512227416039D-08 0.790000000000D+02
    0.417600000000D+06 0.000000000000D+00 0.000000000000D+00 0.000000000000D+00
 2 16  9 29 22  0  0.0 0.546431168914D-03-0.500222085975D-11 0.000000000000D+00
    0.460000000000D+02-0.485937500000D+02 0.543915513407D-08-0.426467594853D+00
   -0.235624611378D-05 0.159699593205D-01 0.396929681301D-05 0.515364035225D+04
    0.424800000000D+06-0.987201929092D-07 0.181913810053D+01 0.193715095520D-06
    0.943828083508D+00 0.298968750000D+03-0.208116209794D+01-0.892501461983D-08
   -0.170007081477D-09 0.100000000000D+01 0.191600000000D+04 0.000000000000D+00
    0.200000000000D+01 0.000000000000D+00-0.204890966415D-07 0.460000000000D+02
    0.417600000000D+06 0.400000000000D+01 0.000000000000D+00 0.000000000000D+00
 3 16  9 29 22  0  0.0-0.898456200957D-04-0.204636307899D-11 0.000000000000D+00
    0.340000000000D+02-0.360937500000D+02 0.439696886569D-08-0.193896157010D+01
   -0.184401869774D-05 0.220862799324D-03 0.123698264360D-04 0.515362018204D+04
    0.424800000000D+06 0.279396772385D-07 0.290916216205D+01-0.149011611938D-07
    0.959922881464D+00 0.141250000000D+03 0.480353622005D+00-0.790782939284D-08
   -0.671456540289D-10 0.100000000000D+01 0.191600000000D+04 0.000000000000D+00
    0.200000000000D+01 0.000000000000D+00 0.139698386192D-08 0.340000000000D+02
    0.417600000000D+06 0.400000000000D+01 0.000000000000D+00 0.000000000000D+00
 4 16  9 29 22  0  0.0 0.389898195863D-05 0.329691829393D-11 0.000000000000D+00
    0.136000000000D+03 0.775625000000D+02 0.475805533496D-08 0.268435982424D+01
    0.415183603764D-05 0.841863686219D-02 0.551901757717D-05 0.515360453987D+04
    0.424800000000D+06 0.219792127609D-06-0.221486095344D+01 0.141561031342D-06
    0.966254525499D+00 0.272062500000D+03-0.101390171760D+01-0.821998525252D-08
    0.316798910232D-09 0.100000000000D+01 0.191600000000D+04 0.000000000000D+00
    0.400000000000D+01 0.630000000000D+02-0.372529029846D-08 0.136000000000D+03
    0.418170000000D+06 0.400000000000D+01 0.000000000000D+00 0.000000000000D+00
 5 16  9 29 22  0  0.0-0.877650454640D-04 0.250111042988D-11 0.000000000000D+00
    0.480000000000D+02-0.275312500000D+02 0.471055335631D-08 0.204854428104D+01
   -0.134855508804D-05 0.479630834889D-02 0.123754143715D-04 0.515361496353D+04
    0.424800000000D+06-0.141561031342D-06 0.289558706640D+01 0.242143869400D-07
    0.946943878116D+00 0.135343750000D+03 0.517035674028D+00-0.802497712965D-08
   -0.839320675361D-10 0.100000000000D+01 0.191600000000D+04 0.000000000000D+00
    0.200000000000D+01 0.000000000000D+00-0.107102096081D-07 0.480000000000D+02
    0.419880000000D+06 0.400000000000D+01 0.000000000000D+00 0.000000000000D+00
 6 16  9 29 22  0  0.0 0.253024976701D-03 0.511590769747D-11 0.000000000000D+00
    0.320000000000D+02-0.556875000000D+02 0.480448584041D-08-0.398749203242D+00
   -0.308267772198D-05 0.198964495212D-03 0.423938035965D-05 0.515377333260D+04
    0.424800000000D+06-0.745058059692D-08 0.185897294143D+01-0.447034835815D-07
    0.964829817377D+00 0.302093750000D+03-0.156958233593D+01-0.837677749784D-08
   -0.221080637467D-09 0.100000000000D+01 0.191600000000D+04 0.000000000000D+00
    0.200000000000D+01 0.000000000000D+00 0.419095158577D-08 0.320000000000D+02
    0.417600000000D+06 0.400000000000D+01 0.000000000000D+00 0.000000000000D+00
